CCSDS_OMM_VERS = 2.0
CREATION_DATE  = 
ORIGINATOR     = 

OBJECT_NAME    = SL-14 R/B
OBJECT_ID      = 1991-042B
CENTER_NAME    = EARTH
REF_FRAME      = TEME
TIME_SYSTEM    = UTC
MEAN_ELEMENT_THEORY = SGP/SGP4

EPOCH          = 2026-01-31T03:29:26.981088
MEAN_MOTION    = 14.81793316
ECCENTRICITY   = .0017283
INCLINATION    = 82.4907
RA_OF_ASC_NODE = 255.3972
ARG_OF_PERICENTER = 9.6183
MEAN_ANOMALY   = 350.5359

EPHEMERIS_TYPE = 0
CLASSIFICATION_TYPE = U
NORAD_CAT_ID   = 21423
ELEMENT_SET_NO = 999
REV_AT_EPOCH   = 84751
BSTAR          = .55775E-4
MEAN_MOTION_DOT = .464E-5
MEAN_MOTION_DDOT = 0

CCSDS_OMM_VERS = 2.0
CREATION_DATE  = 
ORIGINATOR     = 

OBJECT_NAME    = ERS-1
OBJECT_ID      = 1991-050A
CENTER_NAME    = EARTH
REF_FRAME      = TEME
TIME_SYSTEM    = UTC
MEAN_ELEMENT_THEORY = SGP/SGP4

EPOCH          = 2026-01-31T00:31:44.131584
MEAN_MOTION    = 14.39416177
ECCENTRICITY   = .0031199
INCLINATION    = 98.7895
RA_OF_ASC_NODE = 48.3096
ARG_OF_PERICENTER = 315.4481
MEAN_ANOMALY   = 44.4198

EPHEMERIS_TYPE = 0
CLASSIFICATION_TYPE = U
NORAD_CAT_ID   = 21574
ELEMENT_SET_NO = 999
REV_AT_EPOCH   = 81031
BSTAR          = .1652E-3
MEAN_MOTION_DOT = .47E-5
MEAN_MOTION_DDOT = 0

CCSDS_OMM_VERS = 2.0
CREATION_DATE  = 
ORIGINATOR     = 

OBJECT_NAME    = ARIANE 40 R/B
OBJECT_ID      = 1991-050F
CENTER_NAME    = EARTH
REF_FRAME      = TEME
TIME_SYSTEM    = UTC
MEAN_ELEMENT_THEORY = SGP/SGP4

EPOCH          = 2026-01-31T03:54:02.469312
MEAN_MOTION    = 14.42863834
ECCENTRICITY   = .0003304
INCLINATION    = 98.2090
RA_OF_ASC_NODE = 84.7931
ARG_OF_PERICENTER = 167.1820
MEAN_ANOMALY   = 192.9455

EPHEMERIS_TYPE = 0
CLASSIFICATION_TYPE = U
NORAD_CAT_ID   = 21610
ELEMENT_SET_NO = 999
REV_AT_EPOCH   = 81358
BSTAR          = .13108E-3
MEAN_MOTION_DOT = .396E-5
MEAN_MOTION_DDOT = 0

CCSDS_OMM_VERS = 2.0
CREATION_DATE  = 
ORIGINATOR     = 

OBJECT_NAME    = INTERCOSMOS 25
OBJECT_ID      = 1991-086A
CENTER_NAME    = EARTH
REF_FRAME      = TEME
TIME_SYSTEM    = UTC
MEAN_ELEMENT_THEORY = SGP/SGP4

EPOCH          = 2026-01-31T02:11:24.418176
MEAN_MOTION    = 12.11898269
ECCENTRICITY   = .1486407
INCLINATION    = 82.6093
RA_OF_ASC_NODE = 332.7287
ARG_OF_PERICENTER = 197.9463
MEAN_ANOMALY   = 156.3247

EPHEMERIS_TYPE = 0
CLASSIFICATION_TYPE = U
NORAD_CAT_ID   = 21819
ELEMENT_SET_NO = 999
REV_AT_EPOCH   = 49213
BSTAR          = .25616E-3
MEAN_MOTION_DOT = .131E-4
MEAN_MOTION_DDOT = 0

CCSDS_OMM_VERS = 2.0
CREATION_DATE  = 
ORIGINATOR     = 

OBJECT_NAME    = SL-8 R/B
OBJECT_ID      = 1992-008B
CENTER_NAME    = EARTH
REF_FRAME      = TEME
TIME_SYSTEM    = UTC
MEAN_ELEMENT_THEORY = SGP/SGP4

EPOCH          = 2026-01-31T03:18:28.879200
MEAN_MOTION    = 13.75968852
ECCENTRICITY   = .0033461
INCLINATION    = 82.9279
RA_OF_ASC_NODE = 295.7118
ARG_OF_PERICENTER = 238.6995
MEAN_ANOMALY   = 235.5369

EPHEMERIS_TYPE = 0
CLASSIFICATION_TYPE = U
NORAD_CAT_ID   = 21876
ELEMENT_SET_NO = 999
REV_AT_EPOCH   = 70425
BSTAR          = .57669E-4
MEAN_MOTION_DOT = .71E-6
MEAN_MOTION_DDOT = 0

CCSDS_OMM_VERS = 2.0
CREATION_DATE  = 
ORIGINATOR     = 

OBJECT_NAME    = SL-8 R/B
OBJECT_ID      = 1992-020B
CENTER_NAME    = EARTH
REF_FRAME      = TEME
TIME_SYSTEM    = UTC
MEAN_ELEMENT_THEORY = SGP/SGP4

EPOCH          = 2026-01-31T04:20:57.737184
MEAN_MOTION    = 13.75543169
ECCENTRICITY   = .0029784
INCLINATION    = 82.9317
RA_OF_ASC_NODE = 181.6028
ARG_OF_PERICENTER = 44.4763
MEAN_ANOMALY   = 128.0967

EPHEMERIS_TYPE = 0
CLASSIFICATION_TYPE = U
NORAD_CAT_ID   = 21938
ELEMENT_SET_NO = 999
REV_AT_EPOCH   = 69597
BSTAR          = .11355E-3
MEAN_MOTION_DOT = .125E-5
MEAN_MOTION_DDOT = 0

CCSDS_OMM_VERS = 2.0
CREATION_DATE  = 
ORIGINATOR     = 

OBJECT_NAME    = USA 81
OBJECT_ID      = 1992-023A
CENTER_NAME    = EARTH
REF_FRAME      = TEME
TIME_SYSTEM    = UTC
MEAN_ELEMENT_THEORY = SGP/SGP4

EPOCH          = 2026-01-31T01:48:13.950144
MEAN_MOTION    = 14.32352620
ECCENTRICITY   = .0002326
INCLINATION    = 85.0118
RA_OF_ASC_NODE = 153.1283
ARG_OF_PERICENTER = 110.5238
MEAN_ANOMALY   = 249.6204

EPHEMERIS_TYPE = 0
CLASSIFICATION_TYPE = U
NORAD_CAT_ID   = 21949
ELEMENT_SET_NO = 999
REV_AT_EPOCH   = 8940
BSTAR          = .88037E-4
MEAN_MOTION_DOT = .258E-5
MEAN_MOTION_DDOT = 0

CCSDS_OMM_VERS = 2.0
CREATION_DATE  = 
ORIGINATOR     = 

OBJECT_NAME    = COSMOS 2219
OBJECT_ID      = 1992-076A
CENTER_NAME    = EARTH
REF_FRAME      = TEME
TIME_SYSTEM    = UTC
MEAN_ELEMENT_THEORY = SGP/SGP4

EPOCH          = 2026-01-31T04:06:18.631872
MEAN_MOTION    = 14.14078828
ECCENTRICITY   = .0020698
INCLINATION    = 71.0596
RA_OF_ASC_NODE = 96.5046
ARG_OF_PERICENTER = 259.1482
MEAN_ANOMALY   = 100.7311

EPHEMERIS_TYPE = 0
CLASSIFICATION_TYPE = U
NORAD_CAT_ID   = 22219
ELEMENT_SET_NO = 999
REV_AT_EPOCH   = 71307
BSTAR          = -.10129E-3
MEAN_MOTION_DOT = -.24E-5
MEAN_MOTION_DDOT = 0

CCSDS_OMM_VERS = 2.0
CREATION_DATE  = 
ORIGINATOR     = 

OBJECT_NAME    = SL-16 R/B
OBJECT_ID      = 1992-076B
CENTER_NAME    = EARTH
REF_FRAME      = TEME
TIME_SYSTEM    = UTC
MEAN_ELEMENT_THEORY = SGP/SGP4

EPOCH          = 2026-01-31T02:01:56.414208
MEAN_MOTION    = 14.16851191
ECCENTRICITY   = .0012071
INCLINATION    = 70.9987
RA_OF_ASC_NODE = 267.5896
ARG_OF_PERICENTER = 162.2450
MEAN_ANOMALY   = 349.8782

EPHEMERIS_TYPE = 0
CLASSIFICATION_TYPE = U
NORAD_CAT_ID   = 22220
ELEMENT_SET_NO = 999
REV_AT_EPOCH   = 71650
BSTAR          = .12207E-3
MEAN_MOTION_DOT = .197E-5
MEAN_MOTION_DDOT = 0

CCSDS_OMM_VERS = 2.0
CREATION_DATE  = 
ORIGINATOR     = 

OBJECT_NAME    = COSMOS 2221
OBJECT_ID      = 1992-080A
CENTER_NAME    = EARTH
REF_FRAME      = TEME
TIME_SYSTEM    = UTC
MEAN_ELEMENT_THEORY = SGP/SGP4

EPOCH          = 2026-01-31T01:12:12.138336
MEAN_MOTION    = 14.96036600
ECCENTRICITY   = .0013575
INCLINATION    = 82.5068
RA_OF_ASC_NODE = 315.1244
ARG_OF_PERICENTER = 325.6132
MEAN_ANOMALY   = 34.4210

EPHEMERIS_TYPE = 0
CLASSIFICATION_TYPE = U
NORAD_CAT_ID   = 22236
ELEMENT_SET_NO = 999
REV_AT_EPOCH   = 77516
BSTAR          = .23193E-3
MEAN_MOTION_DOT = .2632E-4
MEAN_MOTION_DDOT = 0

CCSDS_OMM_VERS = 2.0
CREATION_DATE  = 
ORIGINATOR     = 

OBJECT_NAME    = SL-16 R/B
OBJECT_ID      = 1992-093B
CENTER_NAME    = EARTH
REF_FRAME      = TEME
TIME_SYSTEM    = UTC
MEAN_ELEMENT_THEORY = SGP/SGP4

EPOCH          = 2026-01-31T03:25:47.914752
MEAN_MOTION    = 14.15443039
ECCENTRICITY   = .0004885
INCLINATION    = 71.0212
RA_OF_ASC_NODE = 83.0899
ARG_OF_PERICENTER = 333.3100
MEAN_ANOMALY   = 26.7771

EPHEMERIS_TYPE = 0
CLASSIFICATION_TYPE = U
NORAD_CAT_ID   = 22285
ELEMENT_SET_NO = 999
REV_AT_EPOCH   = 70784
BSTAR          = -.70806E-4
MEAN_MOTION_DOT = -.186E-5
MEAN_MOTION_DDOT = 0

CCSDS_OMM_VERS = 2.0
CREATION_DATE  = 
ORIGINATOR     = 

OBJECT_NAME    = COSMOS 2228
OBJECT_ID      = 1992-094A
CENTER_NAME    = EARTH
REF_FRAME      = TEME
TIME_SYSTEM    = UTC
MEAN_ELEMENT_THEORY = SGP/SGP4

EPOCH          = 2026-01-31T03:47:23.847360
MEAN_MOTION    = 14.97014937
ECCENTRICITY   = .00195
INCLINATION    = 82.5173
RA_OF_ASC_NODE = 273.2482
ARG_OF_PERICENTER = 69.5988
MEAN_ANOMALY   = 290.7327

EPHEMERIS_TYPE = 0
CLASSIFICATION_TYPE = U
NORAD_CAT_ID   = 22286
ELEMENT_SET_NO = 999
REV_AT_EPOCH   = 77044
BSTAR          = .20432E-3
MEAN_MOTION_DOT = .2386E-4
MEAN_MOTION_DDOT = 0

