SL-14 R/B               
1 21423U 91042B   26031.14545117  .00000464  00000+0  55775-4 0  9994
2 21423  82.4907 255.3972 0017283   9.6183 350.5359 14.81793316847513
ERS-1                   
1 21574U 91050A   26031.02203856  .00000470  00000+0  16520-3 0  9999
2 21574  98.7895  48.3096 0031199 315.4481  44.4198 14.39416177810312
ARIANE 40 R/B           
1 21610U 91050F   26031.16252858  .00000396  00000+0  13108-3 0  9997
2 21610  98.2090  84.7931 0003304 167.1820 192.9455 14.42863834813580
INTERCOSMOS 25          
1 21819U 91086A   26031.09125484  .00001310  00000+0  25616-3 0  9997
2 21819  82.6093 332.7287 1486407 197.9463 156.3247 12.11898269492136
SL-8 R/B                
1 21876U 92008B   26031.13783425  .00000071  00000+0  57669-4 0  9992
2 21876  82.9279 295.7118 0033461 238.6995 235.5369 13.75968852704250
SL-8 R/B                
1 21938U 92020B   26031.18122381  .00000125  00000+0  11355-3 0  9999
2 21938  82.9317 181.6028 0029784  44.4763 128.0967 13.75543169695972
USA 81                  
1 21949U 92023A   26031.07516146  .00000258  00000+0  88037-4 0  9997
2 21949  85.0118 153.1283 0002326 110.5238 249.6204 14.32352620 89402
COSMOS 2219             
1 22219U 92076A   26031.17104898 -.00000240  00000+0 -10129-3 0  9993
2 22219  71.0596  96.5046 0020698 259.1482 100.7311 14.14078828713076
SL-16 R/B               
1 22220U 92076B   26031.08468072  .00000197  00000+0  12207-3 0  9990
2 22220  70.9987 267.5896 0012071 162.2450 349.8782 14.16851191716501
COSMOS 2221             
1 22236U 92080A   26031.05014049  .00002632  00000+0  23193-3 0  9992
2 22236  82.5068 315.1244 0013575 325.6132  34.4210 14.96036600775164
SL-16 R/B               
1 22285U 92093B   26031.14291568 -.00000186  00000+0 -70806-4 0  9991
2 22285  71.0212  83.0899 0004885 333.3100  26.7771 14.15443039707849
COSMOS 2228             
1 22286U 92094A   26031.15791490  .00002386  00000+0  20432-3 0  9994
2 22286  82.5173 273.2482 0019500  69.5988 290.7327 14.97014937770443
